STARLINK-37376          
1 69378U 26123AB  26160.58337963 -.01860400  10970-2 -26647-2 0  9993
2 69378  53.1568 279.8889 0000706  67.8710 289.8962 16.04929249  2075
STARLINK-37383          
1 69379U 26123AC  26160.58337963 -.01806970  10546-2 -23960-2 0  9990
2 69379  53.1563 279.8574 0000621  72.0219 300.8010 16.06175383  2072
STARLINK-37411          
1 69380U 26123AD  26160.58337963 -.01854146  10957-2 -25880-2 0  9999
2 69380  53.1567 279.8781 0000632  68.5482 294.1964 16.05350575  2072
STARLINK-37427          
1 69381U 26123AE  26160.58337963 -.01783748  10255-2 -24071-2 0  9991
2 69381  53.1566 279.8663 0000669  69.9445 298.5850 16.05889904  1989
DTC TEST OBJECT A       
1 69472U 26128A   26160.58684054  .00008364  00000+0  12625-3 0  9991
2 69472  54.9945 340.1377 0008139 256.5053 103.5075 15.55697057    43
