OBJECT_NAME,OBJECT_ID,EPOCH,MEAN_MOTION,ECCENTRICITY,INCLINATION,RA_OF_ASC_NODE,ARG_OF_PERICENTER,MEAN_ANOMALY,EPHEMERIS_TYPE,CLASSIFICATION_TYPE,NORAD_CAT_ID,ELEMENT_SET_NO,REV_AT_EPOCH,BSTAR,MEAN_MOTION_DOT,MEAN_MOTION_DDOT
STARLINK-37376,2026-123AB,2026-06-09T14:00:04.000032,16.04929249,.00007069,53.1568,279.8889,67.8710,289.8962,0,U,69378,999,207,-.26647083E-2,-.18604E-1,.10969701E-2
STARLINK-37383,2026-123AC,2026-06-09T14:00:04.000032,16.06175383,.0000621,53.1563,279.8574,72.0219,300.8010,0,U,69379,999,207,-.23960465E-2,-.180697E-1,.10545725E-2
STARLINK-37411,2026-123AD,2026-06-09T14:00:04.000032,16.05350575,.0000632,53.1567,279.8781,68.5482,294.1964,0,U,69380,999,207,-.25879934E-2,-.1854146E-1,.10957386E-2
STARLINK-37427,2026-123AE,2026-06-09T14:00:04.000032,16.05889904,.00006696,53.1566,279.8663,69.9445,298.5850,0,U,69381,999,198,-.24070997E-2,-.1783748E-1,.1025543E-2
DTC TEST OBJECT A,2026-128A,2026-06-09T14:05:03.022656,15.55697057,.00081394,54.9945,340.1377,256.5053,103.5075,0,U,69472,999,4,.12625073E-3,.8364E-4,0
